H1 CPF  1  DLR 2022 08 24 10  7362 technosat            
H2  1704205 6203    42829 2022 08 24 00 00 00 2022 08 31 00 00 00    60 1 1  0 0 0
H9
10 0 59816  14400.000000  0       4176279.774       5417941.602       1371331.884
10 0 59816  14460.000000  0       4183218.032       5281048.860       1808651.614
10 0 59816  14520.000000  0       4171247.502       5121941.147       2238300.511
10 0 59816  14580.000000  0       4140223.182       4941448.820       2658453.772
10 0 59816  14640.000000  0       4090088.595       4740494.193       3067326.395
10 0 59816  14700.000000  0       4020876.736       4520086.804       3463180.783
10 0 59816  14760.000000  0       3932710.702       4281318.371       3844334.240
10 0 59816  14820.000000  0       3825803.932       4025357.270       4209166.207
10 0 59816  14880.000000  0       3700460.004       3753442.795       4556125.257
10 0 59816  14940.000000  0       3557071.838       3466879.143       4883735.918
10 0 59816  15000.000000  0       3396120.379       3167028.972       5190605.039
10 0 59816  15060.000000  0       3218172.936       2855306.662       5475427.580
10 0 59816  15120.000000  0       3023881.196       2533171.584       5736991.971
10 0 59816  15180.000000  0       2813978.881       2202121.224       5974185.251
10 0 59816  15240.000000  0       2589278.935       1863684.100       6185997.786
10 0 59816  15300.000000  0       2350670.297       1519412.577       6371527.489
10 0 59816  15360.000000  0       2099114.323       1170875.678       6529983.532
10 0 59816  15420.000000  0       1835640.862        819651.903       6660689.620
10 0 59816  15480.000000  0       1561343.977        467322.094       6763086.788
10 0 59816  15540.000000  0       1277377.397        115462.363       6836735.778
10 0 59816  15600.000000  0        984949.649       -234362.997       6881319.001
10 0 59816  15660.000000  0        685318.884       -580608.607       6896641.922
10 0 59816  15720.000000  0        379787.447       -921754.862       6882633.887
10 0 59816  15780.000000  0         69696.181      -1256314.639       6839348.530
10 0 59816  15840.000000  0       -243581.486      -1582839.870       6766963.627
10 0 59816  15900.000000  0       -558645.659      -1899927.894       6665780.461
10 0 59816  15960.000000  0       -874076.279      -2206227.577       6536222.628
10 0 59816  16020.000000  0      -1188439.491      -2500445.132       6378834.335
10 0 59816  16080.000000  0      -1500294.098      -2781349.657       6194278.311
10 0 59816  16140.000000  0      -1808198.197      -3047778.427       5983333.290
10 0 59816  16200.000000  0      -2110715.926      -3298641.914       5746890.955
10 0 59816  16260.000000  0      -2406424.291      -3532928.461       5485952.400
10 0 59816  16320.000000  0      -2693920.070      -3749708.606       5201624.075
10 0 59816  16380.000000  0      -2971826.703      -3948139.001       4895113.176
10 0 59816  16440.000000  0      -3238801.053      -4127465.875       4567722.544
10 0 59816  16500.000000  0      -3493540.052      -4287028.076       4220845.173
10 0 59816  16560.000000  0      -3734787.241      -4426259.702       3855958.249
10 0 59816  16620.000000  0      -3961339.079      -4544692.223       3474616.809
10 0 59816  16680.000000  0      -4172051.085      -4641956.163       3078447.085
10 0 59816  16740.000000  0      -4365843.786      -4717782.336       2669139.448
10 0 59816  16800.000000  0      -4541708.383      -4772002.548       2248440.992
10 0 59816  16860.000000  0      -4698712.094      -4804549.766       1818147.821
10 0 59816  16920.000000  0      -4836003.128      -4815457.762       1380097.105
10 0 59816  16980.000000  0      -4952815.285      -4804860.278        936158.953
10 0 59816  17040.000000  0      -5048472.162      -4772989.672        488228.100
10 0 59816  17100.000000  0      -5122390.908      -4720175.065         38215.480
10 0 59816  17160.000000  0      -5174085.530      -4646840.016       -411960.277
10 0 59816  17220.000000  0      -5203169.700      -4553499.718       -860381.399
10 0 59816  17280.000000  0      -5209359.043      -4440757.721      -1305139.509
10 0 59816  17340.000000  0      -5192472.904      -4309302.212      -1744344.068
10 0 59816  17400.000000  0      -5152435.558      -4159901.858      -2176130.677
10 0 59816  17460.000000  0      -5089276.895      -3993401.333      -2598669.147
10 0 59816  17520.000000  0      -5003132.609      -3810716.514      -3010171.392
10 0 59816  17580.000000  0      -4894243.855      -3612829.363      -3408899.048
10 0 59816  17640.000000  0      -4762956.441      -3400782.577      -3793170.802
10 0 59816  17700.000000  0      -4609719.497      -3175674.002      -4161369.454
10 0 59816  17760.000000  0      -4435083.646      -2938650.812      -4511948.597
10 0 59816  17820.000000  0      -4239698.709      -2690903.559      -4843438.918
10 0 59816  17880.000000  0      -4024310.965      -2433660.104      -5154454.095
10 0 59816  17940.000000  0      -3789759.991      -2168179.470      -5443696.301
10 0 59816  18000.000000  0      -3536975.103      -1895745.625      -5709961.272
10 0 59816  18060.000000  0      -3266971.424      -1617661.239      -5952142.937
10 0 59816  18120.000000  0      -2980845.590      -1335241.465      -6169237.622
10 0 59816  18180.000000  0      -2679771.091      -1049807.752      -6360347.800
10 0 59816  18240.000000  0      -2364993.302       -762681.734      -6524685.373
10 0 59816  18300.000000  0      -2037824.204       -475179.219      -6661574.482
10 0 59816  18360.000000  0      -1699636.879       -188604.300      -6770453.824
10 0 59816  18420.000000  0      -1351859.825         95756.346      -6850878.538
10 0 59816  18480.000000  0       -995971.065        376639.021      -6902521.776
10 0 59816  18540.000000  0       -633491.962        652808.458      -6925175.833
10 0 59816  18600.000000  0       -265980.876        923063.103      -6918752.753
10 0 59816  18660.000000  0        104973.297       1186240.098      -6883284.489
10 0 59816  18720.000000  0        477757.709       1441220.036      -6818922.824
10 0 59816  18780.000000  0        850742.424       1686931.634      -6725938.886
10 0 59816  18840.000000  0       1222287.436       1922356.144      -6604721.987
10 0 59816  18900.000000  0       1590749.594       2146531.419      -6455778.070
10 0 59816  18960.000000  0       1954489.669       2358555.776      -6279727.892
10 0 59816  19020.000000  0       2311879.553       2557591.604      -6077304.650
10 0 59816  19080.000000  0       2661309.365       2742868.594      -5849351.108
10 0 59816  19140.000000  0       3001194.494       2913686.669      -5596816.425
10 0 59816  19200.000000  0       3329982.688       3069418.661      -5320752.640
10 0 59816  19260.000000  0       3646161.161       3209512.702      -5022310.681
10 0 59816  19320.000000  0       3948263.563       3333494.230      -4702735.868
10 0 59816  19380.000000  0       4234876.817       3440967.648      -4363363.097
10 0 59816  19440.000000  0       4504647.866       3531617.642      -4005611.573
10 0 59816  19500.000000  0       4756290.172       3605210.070      -3630979.113
10 0 59816  19560.000000  0       4988589.932       3661592.519      -3241036.131
10 0 59816  19620.000000  0       5200412.080       3700694.507      -2837419.302
10 0 59816  19680.000000  0       5390706.011       3722527.310      -2421824.874
10 0 59816  19740.000000  0       5558511.016       3727183.360      -1996001.625
10 0 59816  19800.000000  0       5702961.276       3714835.234      -1561743.547
10 0 59816  19860.000000  0       5823290.465       3685734.264      -1120882.307
10 0 59816  19920.000000  0       5918835.918       3640208.765       -675279.520
10 0 59816  19980.000000  0       5989042.394       3578661.912       -226818.825
10 0 59816  20040.000000  0       6033465.323       3501569.200        222602.196
10 0 59816  20100.000000  0       6051773.557       3409475.578        671080.192
10 0 59816  20160.000000  0       6043751.559       3302992.211       1116714.301
10 0 59816  20220.000000  0       6009300.993       3182792.938       1557614.369
10 0 59816  20280.000000  0       5948441.818       3049610.460       1991909.138
10 0 59816  20340.000000  0       5861312.833       2904232.253       2417754.408
10 0 59816  20400.000000  0       5748171.626       2747496.192       2833341.112
10 0 59816  20460.000000  0       5609393.906       2580285.914       3236903.205
10 0 59816  20520.000000  0       5445472.248       2403526.008       3626725.319
10 0 59816  20580.000000  0       5257014.300       2218177.051       4001150.208
10 0 59816  20640.000000  0       5044740.335       2025230.486       4358585.895
10 0 59816  20700.000000  0       4809480.424       1825703.383       4697512.322
10 0 59816  20760.000000  0       4552171.245       1620633.154       5016487.906
10 0 59816  20820.000000  0       4273852.176       1411072.236       5314155.845
10 0 59816  20880.000000  0       3975660.836       1198082.696       5589249.909
10 0 59816  20940.000000  0       3658828.194        982730.852       5840599.761
10 0 59816  21000.000000  0       3324673.271        766081.920       6067135.768
10 0 59816  21060.000000  0       2974597.549        549194.806       6267893.384
10 0 59816  21120.000000  0       2610079.037        333117.005       6442017.175
10 0 59816  21180.000000  0       2232665.964        118879.555       6588764.429
10 0 59816  21240.000000  0       1843970.153        -92507.878       6707508.272
10 0 59816  21300.000000  0       1445660.077       -300061.744       6797740.385
10 0 59816  21360.000000  0       1039453.551       -502829.246       6859073.167
10 0 59816  21420.000000  0        627110.259       -699892.736       6891241.282
10 0 59816  21480.000000  0        210424.139       -890373.856       6894102.834
10 0 59816  21540.000000  0       -208784.487      -1073437.513       6867640.034
99
